#dP2021  3 12  0  0  0.00000000      96 __u+U ITR00 EXT  IAC
## 2148 432000.00000000   900.00000000 59285 0.0000000000000
+  115   C06C07C08C09C10C11C12C13C14C19C20C21C22C23C24C25C26
+        C27C28C29C30C32C33C34C35C36C37C38C39C40C41C42C43C44
+        C45C46E01E02E03E04E05E07E08E09E11E12E13E14E15E18E19
+        E21E24E25E26E27E30E31E33G01G02G03G04G05G06G07G08G09
+        G10G11G12G13G14G15G16G17G18G19G20G21G22G23G24G25G26
+        G27G28G29G30G31G32J01J02J03R01R02R03R04R05R07R08R09
+        R11R12R13R14R15R16R17R18R19R20R21R22R24  0  0  0  0
++        11 11 11  9 11 10  9 10 10  8  8  9  8  9  9 10  8
++         7  9  9  9  8  9  9 10  9  9 11 12  9  8  9  9  8
++         9 10  8  9  7  7  9  7  9 11  8  8  9  8  7  9  8
++         9  7  9  7  8  8  7  9  7  7  8  9  9  7  8  7  7
++         7  9  8  7  9  9  8  6  8  7  7  9  9  8  8  7  8
++         8  7  7  8  8  7 16 10 10  9  9  8  8  8  7  9  8
++         8  7  9  9  8  8  9  9  9  8  9  9 10  0  0  0  0
%c M  cc GPS ccc cccc cccc cccc cccc ccccc ccccc ccccc ccccc
%c cc cc ccc ccc cccc cccc cccc cccc ccccc ccccc ccccc ccccc
%f  0.0000000  0.000000000  0.00000000000  0.000000000000000
%f  0.0000000  0.000000000  0.00000000000  0.000000000000000
%i    0    0    0    0      0      0      0      0         0
%i    0    0    0    0      0      0      0      0         0
/* IAC                                ULTRA-RAPID PREDICTION
/* S/V CLOCKS ARE ALIGNED TO GNSS TIME                      
/* G:C1WC2W R:C1PC2P E:C1XC5X C:C2IC6I J:C1CC2S             
/* PCV:IGS14_2134 OL/AL:FES2004  NONE     YN ORB:CoN CLK:CoN
*  2021 03 12 14 30  0.00000000
PC06 -24786.635726  28303.179614 -19052.420095    170.180556
PC07 -12136.313573  36195.275673 -17067.481229     -9.932575
PC08  -9837.267148  19024.169785  36436.626079   -901.652740
PC09 -10596.715043  28107.672821 -29473.828016    673.799220
PC10  -1816.451498  41559.155459  -5014.554724    -72.866464
PC11 -23199.200371  13418.612589   7776.718282   -873.212149
PC12 -25963.256157   2411.008917  -9888.354195    859.399851
PC13   4949.809859  26718.636565  32418.879674    177.135836
PC14 -13995.638097  18488.312765  15514.838349    192.958682
PC19   9295.800415 -25266.692133  -7345.016046    758.927888
PC20  15973.160063 -10520.177853 -20310.682807   -928.301544
PC21 -13385.346712 -11316.227980  21740.345825   -881.051425
PC22  -2903.997470 -25809.314916  10251.077163   -913.562529
PC23  11707.745293  21838.379831 -12843.885479   -877.297850
PC24 -20942.137829   -359.185976 -18439.829582   -780.940352
PC25  -5570.355043  15882.455433 -22269.676176   -949.665408
PC26 -23415.924391 -14400.403577  -4700.760824    936.482829
PC27  21423.741732   4975.041897  17146.745722    497.421668
PC28   3664.960988  15485.232140  22927.856155    -99.321283
PC29  15519.921900 -17494.410894 -15225.822867    363.988582
PC30  26310.655954  -9074.329411   1829.308031    451.788255
PC32  13466.190682  11203.235886 -21702.702073   -910.831669
PC33  -9246.447932  25243.793863   7463.700652   -948.173492
PC34 -26248.470242   9451.272920  -1162.023757   -720.681130
PC35  -3921.103159 -15514.639780 -22863.092464   -378.175359
PC36   6294.073340 -15512.502563  22344.179921   -742.888019
PC37  22887.824913  15508.729940   3887.236053   -875.312865
PC38  -7868.812544  22658.284028  34714.194192    135.364819
PC39 -18510.205743  30314.878737 -22818.681623     29.309739
PC40  -7011.154930  40834.259034  -7419.708437    140.191969
PC41   2771.191997  25917.186899  -9928.422185   -931.850868
PC42 -16132.007863   9698.798099  20644.051672   -933.544868
PC43 -16042.458392  17396.970825  14806.974487   -636.177807
PC44 -21519.790755  -4483.396647 -17220.171448     82.107809
PC45 -11851.059672 -21747.842541  12832.530648    384.779303
PC46  20473.278429   -367.346119  18976.270170    366.349066
PE01   3371.419442  27143.469939 -11333.601557  -1063.993999
PE02  -3455.137727 -27155.368007  11227.686506    204.496611
PE03   7216.855833 -25478.172121  13239.252732   -408.071509
PE04   9653.829798  15015.098647 -23606.124636   -727.397636
PE05  20100.399399 -21131.941894  -5056.647351   -297.641427
PE07 -21137.064443   4499.292283  20231.034108   -511.811858
PE08  -9862.149186 -14629.168348  23771.748125   6034.289830
PE09  21066.662662  -4864.562082 -20217.696888   5737.240431
PE11  29471.413082   2401.166377  -1072.875802   6215.927539
PE12  20071.371787  13395.724582  17132.137800   5313.938138
PE13 -29487.832421  -2569.025465    663.962826    413.434034
PE14  22131.004836  -4321.880340  12487.625217  -1359.267285
PE15 -20185.826442 -13246.046992 -17120.622511    825.040074
PE18 -21078.050862  -6482.368956 -21742.728982  -1486.330650
PE19  -9143.487499  25737.111541 -11410.084086    225.007624
PE21 -10509.649933  15073.773089 -23213.354211   -653.195370
PE24  18927.617305   7013.437059  21643.501124   -788.842863
PE25  10634.638133 -14881.460352  23270.495276   -528.293961
PE26 -20882.635877  10006.771534  18448.512258   2050.430950
PE27 -18818.210506  -6136.800528 -22005.624934     11.994651
PE30 -15561.088467 -24146.444576  -7109.118619   3112.893303
PE31  16019.808759  23619.570051   7871.586971   -479.097880
PE33  -1007.985031  16117.418796  24816.279890   -466.459128
PG01 -20113.934272 -14277.513926 -10542.107177    742.896599
PG02  -2538.825099  15319.321015  22207.520141   -585.394845
PG03 -12848.650573 -19581.042760  12549.789598   -106.049128
PG04 -10976.041784 -10625.093477  21735.799261   -185.729597
PG05   3519.293027  25921.426585   3846.737764    -36.017859
PG06 -16047.193929   8382.390976  19518.536123      0.507755
PG07 -25791.654578  -6685.050410  -2792.541528     87.493730
PG08  -4085.601089 -15783.981942 -20902.428889    -13.446571
PG09 -19353.644161    328.480696  18136.593439   -330.429566
PG10  12907.768938  -9266.606769 -21124.483341    -79.459358
PG11 -15093.505536 -11997.023680 -18576.115366     -0.922357
PG12   9470.383288  22963.459736   9369.473884    -12.904415
PG13  -6785.356900  19011.632104 -17330.196679    106.983788
PG14 -13928.028788   7697.241198 -21275.101282     99.860517
PG15   6711.637546  15650.068853 -20668.552933   -163.633890
PG16   1105.407404 -25568.245286   5877.729020   -292.903538
PG17 -22174.056030  13827.254546  -4305.991451    408.461914
PG18  25404.867265   4147.723881  -6674.000377    350.305559
PG19 -20112.353245  16941.489051   3050.362900    -27.322050
PG20  17057.862130   3634.780013 -20150.006225    524.282494
PG21 -14626.196697 -15139.820356 -15735.137523    102.539714
PG22 -10561.915208 -24180.241102   3975.703642   -661.998544
PG23  15801.592029   2921.494920 -21174.626001    117.672982
PG24  16254.138368  15432.191235 -14784.854879      1.146077
PG25  15446.964551  10920.113822  18494.017655     97.388511
PG26   6217.276526 -20689.975688  15219.030847     57.030570
PG27   8126.610835 -20511.692359 -14673.749765    -92.603895
PG28 -12695.193045  10619.273756 -20261.188675    603.242353
PG29  19258.347399    484.153662  18259.705608   -310.505592
PG30 -22367.478118   2969.240116 -14140.952156   -397.352022
PG31  14135.399562 -10041.816112  20161.876401   -105.154329
PG32  21032.703665 -15654.161222  -3521.501157     21.024605
PJ01 -30448.953250  26856.632920  16319.687456   -354.403256
PJ02 -20481.857244  21293.041820 -25607.712818      3.236465
PJ03 -30553.766111  27764.814847  13622.642100     -1.652024
PR01  13011.539649  -6995.085855 -20795.106993     76.301876
PR02  10670.800015 -22726.359746  -4284.649896    470.438650
PR03   1591.299285 -21987.830297  12831.388645     32.275783
PR04  -8019.235797  -8824.945176  22577.578751     77.580479
PR05 -13302.468071   9231.571935  19731.133721     68.035658
PR07  -1329.297788  21763.916160 -13236.298622    -42.534935
PR08   8108.151295   8843.284630 -22456.360276    -57.871864
PR09  -2974.056751  12994.597024 -21722.122519    -17.478190
PR11  18327.306609  16443.849789   6653.019893      2.370239
PR12  14974.978806   2617.739457  20510.606268    211.970326
PR13   3145.812544 -12474.672937  22003.097479    -51.913298
PR14 -10871.071114 -20647.219345  10321.240963     61.942721
PR15 -18152.095387 -16487.000077  -7002.099489    104.976822
PR16 -14586.120129  -1198.420526 -20883.562518    -12.388362
PR17  -2305.912517 -10303.326287 -23208.673207    407.362328
PR18 -18796.056581  -4503.989689 -16663.060735     69.542417
PR19 -25296.029610   2600.942748  -2025.907395   -135.419811
PR20 -16747.862452   9744.450019  16628.426501    -45.060694
PR21   3602.997210   9987.341244  23196.846913   -193.839585
PR22  19449.230859   4109.396076  15909.304514   -102.217602
PR24  15928.370001 -10441.358203 -16952.069921     34.730324
EOF
